NORAD_CAT_ID,OBJECT_NAME,OBJECT_TYPE,EPOCH,MEAN_MOTION,ECCENTRICITY,INCLINATION,RA_OF_ASC_NODE,ARG_OF_PERICENTER,MEAN_ANOMALY,BSTAR,MEAN_MOTION_DOT,MEAN_MOTION_DDOT,TLE_LINE0,TLE_LINE1,TLE_LINE2,SEMIMAJOR_AXIS,PERIOD,APOGEE,PERIGEE,DECAYED
55423.0,STARLINK-5068,PAYLOAD,2024-03-30 22:09:08,14.98340042,0.000222,70.0009,71.5973,247.1141,112.9784,-8.9955e-05,-1.166e-05,0.0,0 STARLINK-5068,1 55423U 23014AJ  24090.92301662 -.00001166  00000-0 -89955-4 0  9999,2 55423  70.0009  71.5973 0002220 247.1141 112.9784 14.98340042 65395,6950.162,96.106,573.57,570.484,0.0
55423.0,STARLINK-5068,PAYLOAD,2024-03-31 04:33:40,14.98337605,0.0002497,69.9994,70.9224,263.3187,96.7688,-6.9687e-05,-9.24e-06,0.0,0 STARLINK-5068,1 55423U 23014AJ  24091.19005634 -.00000924  00000-0 -69687-4 0  9990,2 55423  69.9994  70.9224 0002497 263.3187  96.7688 14.98337605 64496,6950.169,96.107,573.77,570.299,0.0
55423.0,STARLINK-5068,PAYLOAD,2024-03-31 09:22:04,14.98340311,0.0002562,69.9995,70.4175,267.0052,93.0814,-0.00011588,-1.476e-05,0.0,0 STARLINK-5068,1 55423U 23014AJ  24091.39033468 -.00001476  00000-0 -11588-3 0  9997,2 55423  69.9995  70.4175 0002562 267.0052  93.0814 14.98340311 65469,6950.161,96.106,573.807,570.245,0.0
55423.0,STARLINK-5068,PAYLOAD,2024-03-31 15:46:37,14.98356777,0.0002462,70.001,69.7427,271.233,88.8547,-0.00057617,-6.965e-05,0.0,0 STARLINK-5068,1 55423U 23014AJ  24091.65737441 -.00006965  00000-0 -57617-3 0  9999,2 55423  70.0010  69.7427 0002462 271.2330  88.8547 14.98356777 65509,6950.11,96.105,573.686,570.264,0.0
55423.0,STARLINK-5068,PAYLOAD,2024-04-01 04:35:42,14.98328283,0.0002762,69.9994,68.3975,268.8187,91.2656,-8.4568e-05,-1.102e-05,0.0,0 STARLINK-5068,1 55423U 23014AJ  24092.19145996 -.00001102  00000-0 -84568-4 0  9991,2 55423  69.9994  68.3975 0002762 268.8187  91.2656 14.98328283 64649,6950.198,96.107,573.983,570.144,0.0
55423.0,STARLINK-5068,PAYLOAD,2024-04-01 07:47:58,14.98326177,0.0002526,69.9996,68.0609,265.365,94.722,-9.5286e-05,-1.23e-05,0.0,0 STARLINK-5068,1 55423U 23014AJ  24092.32498130 -.00001230  00000-0 -95286-4 0  9998,2 55423  69.9996  68.0609 0002526 265.3650  94.7220 14.98326177 65609,6950.205,96.107,573.825,570.314,0.0
55423.0,STARLINK-5068,PAYLOAD,2024-04-01 20:37:02,14.98335365,0.0002704,69.9998,66.7144,267.4709,92.6141,-9.1485e-08,-9.4e-07,0.0,0 STARLINK-5068,1 55423U 23014AJ  24092.85905374 -.00000094  00000-0 -91485-7 0  9996,2 55423  69.9998  66.7144 0002704 267.4709  92.6141 14.98335365 64748,6950.176,96.107,573.921,570.162,0.0
55423.0,STARLINK-5068,PAYLOAD,2024-04-02 07:49:58,14.98339213,0.000277,69.9997,65.5358,269.1056,90.9786,3.2855e-05,2.99e-06,0.0,0 STARLINK-5068,1 55423U 23014AJ  24093.32636862  .00000299  00000-0  32855-4 0  9990,2 55423  69.9997  65.5358 0002770 269.1056  90.9786 14.98339213 65752,6950.164,96.106,573.955,570.104,0.0
55423.0,STARLINK-5068,PAYLOAD,2024-04-02 15:50:39,14.98331348,0.0002666,69.9997,64.6942,268.8595,91.2258,-5.7577e-06,-1.62e-06,0.0,0 STARLINK-5068,1 55423U 23014AJ  24093.66017380 -.00000162  00000-0 -57577-5 0  9995,2 55423  69.9997  64.6942 0002666 268.8595  91.2258 14.98331348 65804,6950.189,96.107,573.907,570.201,0.0
55423.0,STARLINK-5068,PAYLOAD,2024-04-03 03:03:35,14.9832487,0.0002684,69.9998,63.5161,268.9724,91.1127,3.3471e-05,3.06e-06,0.0,0 STARLINK-5068,1 55423U 23014AJ  24094.12749762  .00000306  00000-0  33471-4 0  9997,2 55423  69.9998  63.5161 0002684 268.9724  91.1127 14.98324870 64930,6950.209,96.107,573.939,570.208,0.0
55423.0,STARLINK-5068,PAYLOAD,2024-04-03 07:51:59,14.98326918,0.0002686,69.9998,63.011,268.9123,91.1729,2.5535e-05,2.12e-06,0.0,0 STARLINK-5068,1 55423U 23014AJ  24094.32777684  .00000212  00000-0  25535-4 0  9991,2 55423  69.9998  63.0110 0002686 268.9123  91.1729 14.98326918 65905,6950.202,96.107,573.934,570.201,0.0
55423.0,STARLINK-5068,PAYLOAD,2024-04-04 04:41:44,14.98338149,0.0002665,70.0,60.8231,270.1638,89.9215,4.5867e-06,-3.8e-07,0.0,0 STARLINK-5068,1 55423U 23014AJ  24095.19564847 -.00000038  00000-0  45867-5 0  9990,2 55423  70.0000  60.8231 0002665 270.1638  89.9215 14.98338149 65098,6950.168,96.106,573.885,570.18,0.0
55423.0,STARLINK-5068,PAYLOAD,2024-04-04 14:18:32,14.98336527,0.0002442,70.0005,59.8133,269.4355,90.6525,-9.1382e-05,-1.183e-05,0.0,0 STARLINK-5068,1 55423U 23014AJ  24095.59621081 -.00001183  00000-0 -91382-4 0  9993,2 55423  70.0005  59.8133 0002442 269.4355  90.6525 14.98336527 66094,6950.173,96.107,573.735,570.34,0.0
55423.0,STARLINK-5068,PAYLOAD,2024-04-04 22:19:13,14.98328111,0.0002595,70.0003,58.9717,273.0797,87.0065,1.582e-05,9.6e-07,0.0,0 STARLINK-5068,1 55423U 23014AJ  24095.93001262  .00000096  00000-0  15820-4 0  9997,2 55423  70.0003  58.9717 0002595 273.0797  87.0065 14.98328111 66145,6950.199,96.107,573.867,570.26,0.0
55423.0,STARLINK-5068,PAYLOAD,2024-04-05 03:07:37,14.98328726,0.0002593,70.0004,58.4667,273.2332,86.853,2.0013e-05,1.46e-06,0.0,0 STARLINK-5068,1 55423U 23014AJ  24096.13029219  .00000146  00000-0  20013-4 0  9998,2 55423  70.0004  58.4667 0002593 273.2332  86.8530 14.98328726 65235,6950.197,96.107,573.864,570.26,0.0
55423.0,STARLINK-5068,PAYLOAD,2024-04-05 07:56:01,14.98331293,0.0002532,70.0005,57.9623,269.7183,90.3686,4.5399e-05,4.49e-06,0.0,0 STARLINK-5068,1 55423U 23014AJ  24096.33056945  .00000449  00000-0  45399-4 0  9996,2 55423  70.0005  57.9623 0002532 269.7183  90.3686 14.98331293 66202,6950.189,96.107,573.814,570.294,0.0
55423.0,STARLINK-5068,PAYLOAD,2024-04-06 03:09:38,14.98331564,0.0002467,70.0008,55.9426,269.9604,90.1273,-4.4621e-05,-6.25e-06,0.0,0 STARLINK-5068,1 55423U 23014AJ  24097.13169090 -.00000625  00000-0 -44621-4 0  9996,2 55423  70.0008  55.9426 0002467 269.9604  90.1273 14.98331564 65380,6950.188,96.107,573.768,570.338,0.0
55423.0,STARLINK-5068,PAYLOAD,2024-04-06 14:22:34,14.98337709,0.0002456,70.0011,54.7642,271.3324,88.7554,-0.00025596,-3.146e-05,0.0,0 STARLINK-5068,1 55423U 23014AJ  24097.59901140 -.00003146  00000-0 -25596-3 0  9996,2 55423  70.0011  54.7642 0002456 271.3324  88.7554 14.98337709 66399,6950.169,96.107,573.741,570.327,0.0
55423.0,STARLINK-5068,PAYLOAD,2024-04-06 22:23:15,14.98323176,0.0002755,70.0007,53.9217,269.9827,90.1016,1.7489e-05,1.16e-06,0.0,0 STARLINK-5068,1 55423U 23014AJ  24097.93281374  .00000116  00000-0  17489-4 0  9999,2 55423  70.0007  53.9217 0002755 269.9827  90.1016 14.98323176 66445,6950.214,96.107,573.994,570.164,0.0
55423.0,STARLINK-5068,PAYLOAD,2024-04-07 06:23:55,14.98327387,0.0002582,70.0009,53.0811,268.5779,91.5084,-4.5546e-05,-6.36e-06,0.0,0 STARLINK-5068,1 55423U 23014AJ  24098.26661416 -.00000636  00000-0 -45546-4 0  9999,2 55423  70.0009  53.0811 0002582 268.5779  91.5084 14.98327387 66490,6950.201,96.107,573.861,570.271,0.0
55423.0,STARLINK-5068,PAYLOAD,2024-04-07 22:25:15,14.98328038,0.0002606,70.0007,51.3976,270.9645,89.1215,8.1071e-06,4e-08,0.0,0 STARLINK-5068,1 55423U 23014AJ  24098.93421291  .00000004  00000-0  81071-5 0  9999,2 55423  70.0007  51.3976 0002606 270.9645  89.1215 14.98328038 66591,6950.199,96.107,573.875,570.253,0.0
55423.0,STARLINK-5068,PAYLOAD,2024-04-08 03:13:40,14.98330669,0.0002643,70.0006,50.8924,270.7588,89.3268,2.0706e-05,1.54e-06,0.0,0 STARLINK-5068,1 55423U 23014AJ  24099.13449092  .00000154  00000-0  20706-4 0  9994,2 55423  70.0006  50.8924 0002643 270.7588  89.3268 14.98330669 65684,6950.191,96.107,573.893,570.219,0.0
55423.0,STARLINK-5068,PAYLOAD,2024-04-08 14:26:36,14.98330817,0.0002583,70.0009,49.7131,271.9595,88.1268,3.2121e-05,2.9e-06,0.0,0 STARLINK-5068,1 55423U 23014AJ  24099.60181046  .00000290  00000-0  32121-4 0  9993,2 55423  70.0009  49.7131 0002583 271.9595  88.1268 14.98330817 66692,6950.19,96.107,573.851,570.26,0.0
55423.0,STARLINK-5068,PAYLOAD,2024-04-09 00:03:24,14.98327504,0.0002701,70.0007,48.7039,270.8185,89.2664,5.3633e-05,5.47e-06,0.0,0 STARLINK-5068,1 55423U 23014AJ  24100.00237184  .00000547  00000-0  53633-4 0  9991,2 55423  70.0007  48.7039 0002701 270.8185  89.2664 14.98327504 66759,6950.201,96.107,573.943,570.188,0.0
55423.0,STARLINK-5068,PAYLOAD,2024-04-09 03:15:41,14.98328433,0.0002613,70.0008,48.3669,268.6102,91.4758,5.8341e-05,6.03e-06,0.0,0 STARLINK-5068,1 55423U 23014AJ  24100.13589121  .00000603  00000-0  58341-4 0  9990,2 55423  70.0008  48.3669 0002613 268.6102  91.4758 14.98328433 65830,6950.198,96.107,573.879,570.247,0.0
55423.0,STARLINK-5068,PAYLOAD,2024-04-09 06:27:56,14.98331172,0.0002688,70.0007,48.0305,270.6406,89.4445,5.6479e-05,5.81e-06,0.0,0 STARLINK-5068,1 55423U 23014AJ  24100.26940940  .00000581  00000-0  56479-4 0  9999,2 55423  70.0007  48.0305 0002688 270.6406  89.4445 14.98331172 66795,6950.189,96.107,573.922,570.186,0.0
55423.0,STARLINK-5068,PAYLOAD,2024-04-10 04:53:49,14.98332675,0.000272,70.001,45.675,272.3296,87.7551,3.5349e-05,3.29e-06,0.0,0 STARLINK-5068,1 55423U 23014AJ  24101.20404760  .00000329  00000-0  35349-4 0  9992,2 55423  70.0010  45.6750 0002720 272.3296  87.7551 14.98332675 65998,6950.185,96.107,573.94,570.159,0.0
55423.0,STARLINK-5068,PAYLOAD,2024-04-10 06:29:57,14.98327286,0.0002492,70.0015,45.5069,268.4763,91.611,0.00015373,1.742e-05,0.0,0 STARLINK-5068,1 55423U 23014AJ  24101.27080811  .00001742  00000-0  15373-3 0  9990,2 55423  70.0015  45.5069 0002492 268.4763  91.6110 14.98327286 66949,6950.201,96.107,573.798,570.334,0.0
55423.0,STARLINK-5068,PAYLOAD,2024-04-10 22:31:18,14.98325078,0.0002538,70.0021,43.8254,269.0715,91.0153,1.8228e-05,1.25e-06,0.0,0 STARLINK-5068,1 55423U 23014AJ  24101.93841155  .00000125  00000-0  18228-4 0  9996,2 55423  70.0021  43.8254 0002538 269.0715  91.0153 14.98325078 67048,6950.208,96.107,573.837,570.309,0.0
55423.0,STARLINK-5068,PAYLOAD,2024-04-11 04:55:50,14.98331038,0.0002328,70.0019,43.1521,253.8472,106.2431,-6.989e-06,-1.76e-06,0.0,0 STARLINK-5068,1 55423U 23014AJ  24102.20544849 -.00000176  00000-0 -69890-5 0  9997,2 55423  70.0019  43.1521 0002328 253.8472 106.2431 14.98331038 66144,6950.19,96.107,573.673,570.437,0.0
